NORAD_CAT_ID,OBJECT_NAME,OBJECT_TYPE,EPOCH,MEAN_MOTION,ECCENTRICITY,INCLINATION,RA_OF_ASC_NODE,ARG_OF_PERICENTER,MEAN_ANOMALY,BSTAR,MEAN_MOTION_DOT,MEAN_MOTION_DDOT,TLE_LINE0,TLE_LINE1,TLE_LINE2,SEMIMAJOR_AXIS,PERIOD,APOGEE,PERIGEE,DECAYED
50192.0,STARLINK-3259,PAYLOAD,2023-04-18 05:41:22,15.08832994,4.81e-05,53.2164,301.7196,135.2933,224.8098,-1.2765e-05,-4.91e-06,0.0,0 STARLINK-3259,1 50192U 21125AN  23108.23706455 -.00000491  00000-0 -12765-4 0  9995,2 50192  53.2164 301.7196 0000481 135.2933 224.8098 15.08832994 77248,6917.902,95.438,540.1,539.434,0.0
50192.0,STARLINK-3259,PAYLOAD,2023-04-18 19:59:50,15.08843461,0.0001145,53.2157,299.0427,94.9167,265.1956,0.00010532,1.389e-05,0.0,0 STARLINK-3259,1 50192U 21125AN  23108.83322483  .00001389  00000-0  10532-3 0  9990,2 50192  53.2157 299.0427 0001145  94.9167 265.1956 15.08843461 77336,6917.87,95.437,540.527,538.943,0.0
50192.0,STARLINK-3259,PAYLOAD,2023-04-18 23:10:36,15.08847525,0.0001081,53.2162,298.4482,88.3698,271.7418,0.00017751,2.539e-05,0.0,0 STARLINK-3259,1 50192U 21125AN  23108.96570339  .00002539  00000-0  17751-3 0  9997,2 50192  53.2162 298.4482 0001081  88.3698 271.7418 15.08847525 77354,6917.857,95.437,540.47,538.975,0.0
50192.0,STARLINK-3259,PAYLOAD,2023-04-19 16:39:51,15.08836141,9.91e-05,53.2151,295.1758,80.6388,279.4717,0.00018042,2.584e-05,0.0,0 STARLINK-3259,1 50192U 21125AN  23109.69435022  .00002584  00000-0  18042-3 0  9991,2 50192  53.2151 295.1758 0000991  80.6388 279.4717 15.08836141 77463,6917.892,95.438,540.443,539.072,0.0
50192.0,STARLINK-3259,PAYLOAD,2023-04-20 11:44:29,15.08837823,0.0001104,53.2163,291.6096,76.1752,283.9363,9.0479e-05,1.152e-05,0.0,0 STARLINK-3259,1 50192U 21125AN  23110.48922948  .00001152  00000-0  90479-4 0  9993,2 50192  53.2163 291.6096 0001104  76.1752 283.9363 15.08837823 77582,6917.887,95.438,540.516,538.988,0.0
50192.0,STARLINK-3259,PAYLOAD,2023-04-20 18:06:01,15.08841665,0.000115,53.2167,290.4211,72.3351,287.7767,0.00013522,1.865e-05,0.0,0 STARLINK-3259,1 50192U 21125AN  23110.75418849  .00001865  00000-0  13522-3 0  9997,2 50192  53.2167 290.4211 0001150  72.3351 287.7767 15.08841665 74537,6917.875,95.437,540.536,538.945,0.0
50192.0,STARLINK-3259,PAYLOAD,2023-04-21 05:13:43,15.08837681,0.0001005,53.2157,288.3361,78.2171,281.8934,-1.507e-06,-3.12e-06,0.0,0 STARLINK-3259,1 50192U 21125AN  23111.21786805 -.00000312  00000-0 -15070-5 0  9999,2 50192  53.2157 288.3361 0001005  78.2171 281.8934 15.08837681 77696,6917.887,95.438,540.448,539.057,0.0
50192.0,STARLINK-3259,PAYLOAD,2023-04-21 17:56:48,15.08843323,0.0001087,53.2151,285.9604,66.638,293.4726,6.0222e-05,6.71e-06,0.0,0 STARLINK-3259,1 50192U 21125AN  23111.74778653  .00000671  00000-0  60222-4 0  9993,2 50192  53.2151 285.9604 0001087  66.6380 293.4726 15.08843323 77773,6917.87,95.437,540.487,538.983,0.0
50192.0,STARLINK-3259,PAYLOAD,2023-04-21 22:42:57,15.08853399,0.0001062,53.2146,285.0653,83.6919,276.4194,0.00016914,2.406e-05,0.0,0 STARLINK-3259,1 50192U 21125AN  23111.94650168  .00002406  00000-0  16914-3 0  9991,2 50192  53.2146 285.0653 0001062  83.6919 276.4194 15.08853399 74717,6917.839,95.437,540.439,538.97,0.0
50192.0,STARLINK-3259,PAYLOAD,2023-04-22 11:26:03,15.08840916,0.0001211,53.2156,282.6865,72.7928,287.3197,0.00015184,2.13e-05,0.0,0 STARLINK-3259,1 50192U 21125AN  23112.47642935  .00002130  00000-0  15184-3 0  9995,2 50192  53.2156 282.6865 0001211  72.7928 287.3197 15.08840916 74794,6917.878,95.437,540.58,538.905,0.0
50192.0,STARLINK-3259,PAYLOAD,2023-04-22 17:47:35,15.08849632,0.0001269,53.2157,281.4963,78.3309,281.7826,0.00025682,3.803e-05,0.0,0 STARLINK-3259,1 50192U 21125AN  23112.74138572  .00003803  00000-0  25682-3 0  9994,2 50192  53.2157 281.4963 0001269  78.3309 281.7826 15.08849632 77928,6917.851,95.437,540.594,538.838,0.0
50192.0,STARLINK-3259,PAYLOAD,2023-04-22 22:33:45,15.08851524,0.0001279,53.2149,280.6042,75.7691,284.3444,0.0003572,5.403e-05,0.0,0 STARLINK-3259,1 50192U 21125AN  23112.94010477  .00005403  00000-0  35720-3 0  9991,2 50192  53.2149 280.6042 0001279  75.7691 284.3444 15.08851524 74862,6917.845,95.437,540.595,538.825,0.0
50192.0,STARLINK-3259,PAYLOAD,2023-04-23 11:16:50,15.0883123,0.0001269,53.2156,278.2256,67.7362,292.3765,-1.6748e-05,-5.54e-06,0.0,0 STARLINK-3259,1 50192U 21125AN  23113.47003416 -.00000554  00000-0 -16748-4 0  9999,2 50192  53.2156 278.2256 0001269  67.7362 292.3765 15.08831230 78035,6917.907,95.438,540.65,538.894,0.0
50192.0,STARLINK-3259,PAYLOAD,2023-04-24 06:21:28,15.08891921,9.81e-05,53.2163,274.6569,63.3941,296.7151,0.0022233,0.00035324,0.0,0 STARLINK-3259,1 50192U 21125AN  23114.26490895  .00035324  00000-0  22233-2 0  9993,2 50192  53.2163 274.6569 0000981  63.3941 296.7151 15.08891921 75065,6917.722,95.434,540.265,538.908,0.0
50192.0,STARLINK-3259,PAYLOAD,2023-04-25 03:01:27,15.08827049,0.0001284,53.2158,270.7916,116.7616,243.3508,-0.0035967,-0.00057055,0.0,0 STARLINK-3259,1 50192U 21125AN  23115.12601421 -.00057055  00000-0 -35967-2 0  9993,2 50192  53.2158 270.7916 0001284 116.7616 243.3508 15.08827049 75199,6917.92,95.438,540.673,538.897,0.0
50192.0,STARLINK-3259,PAYLOAD,2023-04-25 09:23:01,15.08809651,0.0001371,53.2166,269.6,103.7403,256.3742,-0.00074055,-0.00012045,0.0,0 STARLINK-3259,1 50192U 21125AN  23115.39098447 -.00012045  00000-0 -74055-3 0  9992,2 50192  53.2166 269.6000 0001371 103.7403 256.3742 15.08809651 78327,6917.973,95.439,540.787,538.89,0.0
50192.0,STARLINK-3259,PAYLOAD,2023-04-26 12:24:36,15.08823559,8.22e-05,53.2161,264.5477,127.1468,232.96,0.0013558,0.00021346,0.0,0 STARLINK-3259,1 50192U 21125AN  23116.51709276  .00021346  00000-0  13558-2 0  9998,2 50192  53.2161 264.5477 0000822 127.1468 232.9600 15.08823559 78499,6917.931,95.439,540.364,539.227,0.0
50192.0,STARLINK-3259,PAYLOAD,2023-04-26 20:21:32,15.0884117,7.59e-05,53.216,263.0611,123.2341,236.8724,0.0015524,0.00024506,0.0,0 STARLINK-3259,1 50192U 21125AN  23116.84829409  .00024506  00000-0  15524-2 0  9991,2 50192  53.2160 263.0611 0000759 123.2341 236.8724 15.08841170 78543,6917.877,95.437,540.267,539.217,0.0
50192.0,STARLINK-3259,PAYLOAD,2023-04-27 12:15:23,15.08869057,7.01e-05,53.2156,260.0875,111.9824,248.1243,0.0015358,0.00024258,0.0,0 STARLINK-3259,1 50192U 21125AN  23117.51068807  .00024258  00000-0  15358-2 0  9992,2 50192  53.2156 260.0875 0000701 111.9824 248.1243 15.08869057 78641,6917.792,95.436,540.142,539.172,0.0
50192.0,STARLINK-3259,PAYLOAD,2023-04-28 02:33:50,15.08885009,7.88e-05,53.2147,257.412,84.3771,275.7311,0.0011524,0.00018123,0.0,0 STARLINK-3259,1 50192U 21125AN  23118.10683431  .00018123  00000-0  11524-2 0  9999,2 50192  53.2147 257.4120 0000788  84.3771 275.7311 15.08885009 75647,6917.743,95.435,540.153,539.063,0.0
50192.0,STARLINK-3259,PAYLOAD,2023-04-28 12:06:09,15.08845419,4.02e-05,53.2184,255.6297,118.2708,241.8325,0.000285,4.252e-05,0.0,0 STARLINK-3259,1 50192U 21125AN  23118.50427556  .00004252  00000-0  28500-3 0  9998,2 50192  53.2184 255.6297 0000402 118.2708 241.8325 15.08845419 75700,6917.864,95.437,540.007,539.451,0.0
50192.0,STARLINK-3259,PAYLOAD,2023-04-29 13:32:20,15.08832821,8.47e-05,53.2149,250.8696,90.0083,270.1006,0.00029369,4.389e-05,0.0,0 STARLINK-3259,1 50192U 21125AN  23119.56412204  .00004389  00000-0  29369-3 0  9994,2 50192  53.2149 250.8696 0000847  90.0083 270.1006 15.08832821 78951,6917.902,95.438,540.353,539.181,0.0
50192.0,STARLINK-3259,PAYLOAD,2023-04-29 18:18:29,15.08841722,6.65e-05,53.2155,249.9754,114.2808,245.8254,0.00010866,1.442e-05,0.0,0 STARLINK-3259,1 50192U 21125AN  23119.76283873  .00001442  00000-0  10866-3 0  9993,2 50192  53.2155 249.9754 0000665 114.2808 245.8254 15.08841722 75898,6917.875,95.437,540.2,539.28,0.0
50192.0,STARLINK-3259,PAYLOAD,2023-04-30 13:23:06,15.08850881,7.2e-05,53.2151,246.408,90.3449,269.7625,0.00046808,7.172e-05,0.0,0 STARLINK-3259,1 50192U 21125AN  23120.55771828  .00007172  00000-0  46808-3 0  9995,2 50192  53.2151 246.4080 0000720  90.3449 269.7625 15.08850881 79106,6917.847,95.437,540.21,539.214,0.0
50192.0,STARLINK-3259,PAYLOAD,2023-04-30 18:09:16,15.08859789,7.19e-05,53.2157,245.5159,81.7848,278.3225,0.00072399,0.00011259,0.0,0 STARLINK-3259,1 50192U 21125AN  23120.75643564  .00011259  00000-0  72399-3 0  9997,2 50192  53.2157 245.5159 0000719  81.7848 278.3225 15.08859789 76042,6917.82,95.436,540.182,539.188,0.0
50192.0,STARLINK-3259,PAYLOAD,2023-05-01 13:13:53,15.08843163,5.56e-05,53.2156,241.9469,82.9245,277.181,0.00016367,2.318e-05,0.0,0 STARLINK-3259,1 50192U 21125AN  23121.55131924  .00002318  00000-0  16367-3 0  9997,2 50192  53.2156 241.9469 0000556  82.9245 277.1810 15.08843163 79250,6917.871,95.437,540.12,539.351,0.0
50192.0,STARLINK-3259,PAYLOAD,2023-05-01 14:49:17,15.08843762,5.71e-05,53.2158,241.6498,88.3159,271.7899,0.00019244,2.777e-05,0.0,0 STARLINK-3259,1 50192U 21125AN  23121.61755912  .00002777  00000-0  19244-3 0  9999,2 50192  53.2158 241.6498 0000571  88.3159 271.7899 15.08843762 76172,6917.869,95.437,540.129,539.339,0.0
50192.0,STARLINK-3259,PAYLOAD,2023-05-01 19:35:26,15.08848609,5.15e-05,53.2159,240.7571,83.6059,276.4992,0.00037206,5.64e-05,0.0,0 STARLINK-3259,1 50192U 21125AN  23121.81627790  .00005640  00000-0  37206-3 0  9993,2 50192  53.2159 240.7571 0000515  83.6059 276.4992 15.08848609 79297,6917.854,95.437,540.075,539.363,0.0
50192.0,STARLINK-3259,PAYLOAD,2023-05-02 14:40:03,15.08856272,7.54e-05,53.2169,237.1927,113.6819,246.4252,0.00062844,9.732e-05,0.0,0 STARLINK-3259,1 50192U 21125AN  23122.61115545  .00009732  00000-0  62844-3 0  9994,2 50192  53.2169 237.1927 0000754 113.6819 246.4252 15.08856272 79411,6917.831,95.437,540.217,539.174,0.0
50192.0,STARLINK-3259,PAYLOAD,2023-05-02 19:26:12,15.08863954,6.62e-05,53.2163,236.2971,80.8585,279.2483,0.00073944,0.00011508,0.0,0 STARLINK-3259,1 50192U 21125AN  23122.80987185  .00011508  00000-0  73944-3 0  9999,2 50192  53.2163 236.2971 0000662  80.8585 279.2483 15.08863954 76352,6917.807,95.436,540.13,539.214,0.0
